IRIDIUM 150             
1 43257U 18030J   25034.37300411  .00000769  00000+0  26767-3 0  9998
2 43257  86.4011 139.0114 0002309  94.2714 265.8745 14.34218298358660
IRIDIUM 143             
1 43258U 18030K   25034.77258659  .00000648  00000+0  22426-3 0  9993
2 43258  86.4018 138.9180 0002606  94.6522 265.4971 14.34218750358682
IRIDIUM 161             
1 43478U 18047C   25034.26428040  .00000875  00000+0  25409-3 0  9998
2 43478  86.4493 296.9616 0002098  83.9619 276.1821 14.43279607353175
IRIDIUM 152             
1 43479U 18047D   25034.25692462  .00000665  00000+0  23038-3 0  9992
2 43479  86.3968 296.8240 0002048  86.3163 273.8267 14.34218028350973
IRIDIUM 147             
1 43480U 18047E   25034.26326569  .00000680  00000+0  23563-3 0  9997
2 43480  86.3970 296.8179 0001859  79.1529 280.9876 14.34218192350971
IRIDIUM 110             
1 43481U 18047F   25034.26960988  .00000668  00000+0  23160-3 0  9996
2 43481  86.3972 296.8941 0001729  92.0153 268.1241 14.34218081350964
IRIDIUM 162             
1 43482U 18047G   25034.25798736  .00000884  00000+0  25676-3 0  9990
2 43482  86.4491 296.8612 0002033  89.2331 270.9103 14.43273128353168
IRIDIUM 160             
1 43569U 18061A   25034.70382376  .00000477  00000+0  16315-3 0  9999
2 43569  86.3932 265.0659 0001872  87.5584 272.5826 14.34219583341929
